     2.11           N: GPS NAV DATA                         RINEX VERSION / TYPE
teqc  2018Jan11                         20190109 00:23:39UTCPGM / RUN BY / DATE
Linux 2.4.21-27.ELsmp|Opteron|gcc -static|Linux 64|=+       COMMENT
    7.4506D-09 -1.4901D-08 -5.9605D-08  1.1921D-07          ION ALPHA
    9.0112D+04 -6.5536D+04 -1.3107D+05  4.5875D+05          ION BETA
   -2.793967723846D-09-1.065814103640D-14   405504     2035 DELTA-UTC: A0,A1,T,W
                                                            END OF HEADER
22 19  1  8 12  0  0.0-6.179455667734D-04-8.867573342286D-12 0.000000000000D+00
    5.300000000000D+01-4.912500000000D+01 5.147000107500D-09-2.834193879094D-01
   -2.471730113029D-06 7.062416290864D-03 1.118704676628D-05 5.153616468430D+03
    2.160000000000D+05-1.080334186554D-07 5.008486288472D-01-1.303851604462D-08
    9.267274869482D-01 1.464375000000D+02-1.439619106120D+00-8.333204254263D-09
    3.321566928024D-10 1.000000000000D+00 2.035000000000D+03 0.000000000000D+00
    2.000000000000D+00 0.000000000000D+00-1.816079020500D-08 5.300000000000D+01
    2.088180000000D+05 4.000000000000D+00
30 19  1  8 12  0  0.0-3.256276249886D-05-6.025402399246D-12 0.000000000000D+00
    5.700000000000D+01-1.281250000000D+01 4.981278918833D-09-2.321623322164D+00
   -7.562339305878D-07 3.582193050534D-03 7.992610335350D-06 5.153636903763D+03
    2.160000000000D+05-5.587935447693D-09 2.708805138527D+00-2.421438694000D-08
    9.422165095453D-01 2.159062500000D+02-3.009300291425D+00-8.103194673441D-09
   -5.332364971548D-10 1.000000000000D+00 2.035000000000D+03 0.000000000000D+00
    2.000000000000D+00 0.000000000000D+00 3.725290298462D-09 5.700000000000D+01
    2.088180000000D+05 4.000000000000D+00
28 19  1  8 12  0  0.0 7.612830959260D-04 1.250555214938D-12 0.000000000000D+00
    2.400000000000D+01 1.000312500000D+02 3.748013262654D-09 1.343252303484D+00
    4.949048161507D-06 1.949775638059D-02 1.035816967487D-05 5.153700231552D+03
    2.160000000000D+05-6.146728992462D-08-2.484922606064D+00-5.122274160385D-07
    9.839065500114D-01 1.896562500000D+02-1.480531457872D+00-7.696749171926D-09
    7.607459738377D-11 1.000000000000D+00 2.035000000000D+03 0.000000000000D+00
    2.000000000000D+00 0.000000000000D+00-1.117587089539D-08 2.400000000000D+01
    2.088180000000D+05 4.000000000000D+00
 2 19  1  8 12  0  0.0-1.075812615454D-04-1.011812855722D-11 0.000000000000D+00
    4.100000000000D+01-9.765625000000D+01 4.895918220360D-09-1.366655500767D+00
   -4.610046744347D-06 1.873040362261D-02 3.805384039879D-06 5.153628057480D+03
    2.160000000000D+05 1.527369022369D-07-5.391719813286D-01 5.066394805908D-07
    9.532612265164D-01 2.999375000000D+02-1.794125130136D+00-8.377491813303D-09
   -2.071514858337D-10 1.000000000000D+00 2.035000000000D+03 0.000000000000D+00
    2.000000000000D+00 0.000000000000D+00-2.048909664154D-08 4.100000000000D+01
    2.088180000000D+05 4.000000000000D+00
 5 19  1  8 12  0  0.0 7.334165275097D-07 1.136868377216D-13 0.000000000000D+00
    5.500000000000D+01-5.709375000000D+01 4.657336853917D-09 1.226427742827D+00
   -2.736225724220D-06 5.555853364058D-03 1.098029315472D-05 5.153611589432D+03
    2.160000000000D+05-3.725290298462D-08 5.438491440141D-01 9.872019290924D-08
    9.492550326709D-01 1.638750000000D+02 7.225378945464D-01-7.995690195448D-09
    2.500104139373D-10 1.000000000000D+00 2.035000000000D+03 0.000000000000D+00
    2.000000000000D+00 0.000000000000D+00-1.117587089539D-08 5.500000000000D+01
    2.119380000000D+05 4.000000000000D+00
 5 19  1  8 14  0  0.0 7.343478500843D-07 1.136868377216D-13 0.000000000000D+00
    6.500000000000D+01-6.125000000000D+01 4.615192241282D-09 2.276576067571D+00
   -3.138557076454D-06 5.556376883760D-03 1.131743192673D-05 5.153612140656D+03
    2.232000000000D+05-1.043081283569D-07 5.437914318959D-01-7.450580596924D-08
    9.492577039593D-01 1.559062500000D+02 7.226087334285D-01-7.851755628567D-09
    3.396570052205D-10 1.000000000000D+00 2.035000000000D+03 0.000000000000D+00
    2.000000000000D+00 0.000000000000D+00-1.117587089539D-08 6.500000000000D+01
    2.160180000000D+05 4.000000000000D+00
19 19  1  8 14  0  0.0-3.654947504401D-04 3.979039320257D-12 0.000000000000D+00
    3.900000000000D+01 4.934375000000D+01 4.201603585083D-09-1.988306326494D+00
    2.732500433922D-06 9.387904661708D-03 1.128762960434D-06 5.153616537094D+03
    2.232000000000D+05 1.415610313416D-07-1.427594374476D+00 2.048909664154D-08
    9.811846855948D-01 3.623750000000D+02 1.331197633222D+00-8.102480357972D-09
    2.785830326729D-10 1.000000000000D+00 2.035000000000D+03 0.000000000000D+00
    2.000000000000D+00 0.000000000000D+00-1.536682248116D-08 3.900000000000D+01
    2.160180000000D+05 4.000000000000D+00
 7 19  1  8 14  0  0.0 5.551008507609D-05-7.048583938740D-12 0.000000000000D+00
    4.800000000000D+01-1.234375000000D+01 4.655551065246D-09-1.273687058293D+00
   -7.394701242447D-07 1.213572430424D-02 7.852911949158D-06 5.153614887238D+03
    2.232000000000D+05 3.110617399216D-07 2.678497193199D+00-3.911554813385D-08
    9.566814529140D-01 2.243437500000D+02-2.479446450188D+00-7.916044020722D-09
   -5.760954252583D-10 1.000000000000D+00 2.035000000000D+03 0.000000000000D+00
    2.000000000000D+00 0.000000000000D+00-1.117587089539D-08 4.800000000000D+01
    2.160180000000D+05 4.000000000000D+00
 6 19  1  8 14  0  0.0 3.009191714227D-04-7.503331289627D-12 0.000000000000D+00
    4.200000000000D+01-1.103437500000D+02 4.303393539329D-09-3.446401981162D-01
   -5.893409252167D-06 1.315255649388D-03 4.807487130165D-06 5.153775346756D+03
    2.232000000000D+05-2.607703208923D-08-4.817026943364D-01 2.980232238770D-08
    9.738713342901D-01 2.925625000000D+02-1.216805274812D+00-8.133910238582D-09
   -2.035799084918D-10 1.000000000000D+00 2.035000000000D+03 0.000000000000D+00
    2.000000000000D+00 0.000000000000D+00 4.656612873077D-09 4.200000000000D+01
    2.160180000000D+05 4.000000000000D+00
13 19  1  8 14  0  0.0-7.900223135948D-05 1.250555214938D-12 0.000000000000D+00
    8.100000000000D+01 1.240625000000D+01 4.826272462192D-09 4.119585020795D-01
    7.692724466324D-07 3.738093888387D-03 5.664303898811D-06 5.153657072067D+03
    2.232000000000D+05-1.862645149231D-09 1.736743240796D+00 2.048909664154D-08
    9.675684073365D-01 2.731875000000D+02 1.389152705569D+00-8.138910446860D-09
    1.739358165535D-10 1.000000000000D+00 2.035000000000D+03 0.000000000000D+00
    2.000000000000D+00 0.000000000000D+00-1.117587089539D-08 8.100000000000D+01
    2.160180000000D+05 4.000000000000D+00
 9 19  1  8 14  0  0.0 4.741619341075D-04-4.433786671143D-12 0.000000000000D+00
    6.300000000000D+01 2.137500000000D+01 5.065568144103D-09 1.939946637696D+00
    1.003965735435D-06 1.484915846959D-03 5.675479769707D-06 5.153749279022D+03
    2.232000000000D+05-2.980232238770D-08 1.601564506150D+00-1.862645149231D-08
    9.520203808645D-01 2.622812500000D+02 1.694144717962D+00-8.222485356662D-09
    2.446530479243D-10 1.000000000000D+00 2.035000000000D+03 0.000000000000D+00
    2.000000000000D+00 0.000000000000D+00 1.396983861923D-09 6.300000000000D+01
    2.160180000000D+05 4.000000000000D+00
17 19  1  8 14  0  0.0-7.576774805784D-06 5.115907697473D-12 0.000000000000D+00
    8.400000000000D+01 5.328125000000D+01 4.183388540639D-09 1.513912735148D+00
    2.590939402580D-06 1.301089557819D-02 1.974403858185D-06 5.153671731949D+03
    2.232000000000D+05-1.415610313416D-07-1.474153892838D+00-3.352761268616D-07
    9.834699655173D-01 3.516875000000D+02-1.737012976557D+00-8.223556829865D-09
    2.546534644818D-10 1.000000000000D+00 2.035000000000D+03 0.000000000000D+00
    2.800000000000D+00 0.000000000000D+00-1.117587089539D-08 8.400000000000D+01
    2.160180000000D+05 4.000000000000D+00
28 19  1  8 14  0  0.0 7.612924091518D-04 1.250555214938D-12 0.000000000000D+00
    3.500000000000D+01 1.135937500000D+02 3.465501494905D-09 2.393310522716D+00
    5.766749382019D-06 1.949691772461D-02 9.728595614433D-06 5.153704120636D+03
    2.232000000000D+05 2.365559339523D-07-2.484974719594D+00-2.607703208923D-08
    9.839087429256D-01 1.975000000000D+02-1.480433272662D+00-7.190656662570D-09
   -7.036007363663D-11 1.000000000000D+00 2.035000000000D+03 0.000000000000D+00
    2.000000000000D+00 0.000000000000D+00-1.117587089539D-08 3.500000000000D+01
    2.160180000000D+05 4.000000000000D+00
30 19  1  8 14  0  0.0-3.260653465986D-05-6.025402399246D-12 0.000000000000D+00
    5.800000000000D+01-1.178125000000D+01 4.968421240402D-09-1.271355068859D+00
   -7.282942533493D-07 3.582090372220D-03 8.035451173782D-06 5.153637357712D+03
    2.232000000000D+05 1.490116119385D-08 2.708746950960D+00-7.078051567078D-08
    9.422125918507D-01 2.144375000000D+02-3.009362184563D+00-8.108552039454D-09
   -5.664521664350D-10 1.000000000000D+00 2.035000000000D+03 0.000000000000D+00
    2.000000000000D+00 0.000000000000D+00 3.725290298462D-09 5.800000000000D+01
    2.160180000000D+05 4.000000000000D+00
 2 19  1  8 14  0  0.0-1.076543703675D-04-1.011812855722D-11 0.000000000000D+00
    8.900000000000D+01-9.768750000000D+01 4.948777565021D-09-3.164587461199D-01
   -5.137175321579D-06 1.873034820892D-02 4.336237907410D-06 5.153627559662D+03
    2.232000000000D+05-1.993030309677D-07-5.392347756243D-01 2.179294824600D-07
    9.532585844863D-01 2.972187500000D+02-1.794109174088D+00-8.740364071247D-09
   -1.325055193867D-10 1.000000000000D+00 2.035000000000D+03 0.000000000000D+00
    2.800000000000D+00 0.000000000000D+00-2.048909664154D-08 8.900000000000D+01
    2.160180000000D+05 4.000000000000D+00
